# From MPEC 2026-E44
C/2020 H11 (PANSTARRS-Lemmon),e,151.3679,303.0585,91.3459,5635,0.0000023,0.99864739,0.0000,09/11.3685/2020,2000,g  8.5,4.0
# From MPEC 2026-E44
C/2020 J1 (SONEAR),e,142.3109,226.5533,341.5135,3874,0.0000041,0.99913703,0.0000,04/17.4754/2021,2000,g  8.5,3.2
# From MPEC 2026-E43
C/2020 K1 (PANSTARRS),e,89.6711,94.3668,213.9514,1611,0.0000152,0.99809189,0.0000,05/08.3272/2023,2000,g  5.5,4.0
# From MPEC 2026-E44
C/2020 K2 (PANSTARRS),h,08/03.2064/2020,90.9919,288.4427,67.2830,1.000388,8.879622,2000,6.5,4.0
# From MPEC 2026-E44
C/2020 K6 (Rankin),h,09/13.8851/2021,103.6265,291.6040,44.2390,1.001202,5.864693,2000,8.0,4.0
# From MPEC 2026-E44
C/2020 K7 (PANSTARRS),e,32.0443,286.1336,358.0008,93.59774,0.0010884,0.93181555,2.5738,04/15.0/2026,2000,g  8.0,4.0
# From MPEC 2026-E44
P/2020 K9 (Lemmon-PANSTARRS),e,23.1833,166.2401,197.1247,4.208745,0.1141498,0.31976707,215.7598,04/15.0/2026,2000,g 12.5,4.0
# From MPEC 2026-E44
A/2020 M4,e,160.0928,348.6042,104.4233,5328,0.0000025,0.99888534,0.0000,11/21.8335/2020,2000,g 14.5,2.0
# From MPEC 2026-E44
P/2020 MK4 (PANSTARRS),e,6.7806,0.6530,94.9540,6.226346,0.0634387,0.01575100,335.2998,04/15.0/2026,2000,g  8.0,4.0
# From MPEC 2026-E44
C/2020 M5 (ATLAS),h,08/19.5279/2021,93.1565,351.9780,126.2536,1.000044,3.001247,2000,9.0,4.0
# From MPEC 2026-E44
C/2020 O2 (Amaral),e,71.7671,256.7781,10.1200,4922,0.0000029,0.99901404,0.0000,08/26.8108/2021,2000,g  8.0,3.2
# From MPEC 2026-E44
P/2020 O3 (PANSTARRS),e,8.4447,266.8179,80.8360,4.645809,0.0984265,0.10234678,187.9656,04/15.0/2026,2000,g 12.0,4.0
# From MPEC 2026-E44
C/2020 P3 (ATLAS),h,04/23.2454/2021,61.8291,19.4914,82.3786,1.003972,6.818814,2000,6.0,4.0
# From MPEC 2020-QN1
C/2020 P4-B (SOHO),h,08/07.5712/2020,26.8542,171.7769,173.3723,1.000556,0.102420,2000,0.0,6.0
# From MPEC 2020-QN1
C/2020 P4-C (SOHO),h,08/05.2812/2020,37.2468,165.4176,115.8557,1.013240,0.089413,2000,-1.6,6.0
# From MPEC 2026-E44
C/2020 PV6 (PANSTARRS),e,128.1300,329.1153,71.2465,41.41122,0.0036985,0.94468273,6.1497,04/15.0/2026,2000,g 10.0,4.0
# From MPEC 2026-E44
C/2020 Q2 (PANSTARRS),e,3.3366,179.8490,118.0881,10.58890,0.0286041,0.48843415,65.0422,04/15.0/2026,2000,g 12.0,3.2
# From MPEC 2026-E44
C/2020 R2 (PANSTARRS),e,53.2009,195.1491,211.8942,423.9749,0.0001129,0.98890976,0.0000,02/25.1416/2022,2000,g  9.0,4.0
# From MPEC 2026-E44
P/2020 R5 (PANSTARRS),e,11.4394,272.9381,82.7114,4.994776,0.0882938,0.31272293,189.8655,04/15.0/2026,2000,g  9.5,6.0
# From MPEC 2026-E44
C/2020 R7 (ATLAS),e,114.9045,268.3035,347.7052,3871,0.0000041,0.99923812,0.0000,09/15.8422/2022,2000,g  7.0,3.2
# From MPEC 2026-E44
C/2020 S4 (PANSTARRS),h,02/09.8363/2023,20.5720,117.6745,21.1044,1.003208,3.371982,2000,8.5,3.2
# From MPEC 2026-E44
P/2020 S5 (PANSTARRS),e,12.3368,315.9397,53.3104,4.059932,0.1204831,0.33697542,250.2783,04/15.0/2026,2000,g 14.5,4.0
# From MPEC 2026-E44
P/2020 S7 (PANSTARRS),e,16.0635,328.0116,40.7241,5.038355,0.0871507,0.40904919,172.1926,04/15.0/2026,2000,g 14.5,4.0
# From MPEC 2026-E44
C/2020 T2 (Palomar),e,27.8614,82.9020,150.3659,257.3297,0.0002388,0.99204693,0.0000,07/10.7177/2021,2000,g 11.0,3.2
# From MPEC 2026-E44
P/2020 T3 (PANSTARRS),e,7.2995,73.9768,357.1098,3.515538,0.1495259,0.59234062,285.2936,04/15.0/2026,2000,g 18.0,3.2
# From MPEC 2026-E44
C/2020 U4 (PANSTARRS),h,04/10.4856/2022,167.0039,120.4047,70.2049,1.001811,5.363218,2000,7.0,4.0
# From MPEC 2026-E44
C/2020 U5 (PANSTARRS),h,04/28.7621/2022,97.3159,107.3132,75.4706,1.000055,3.755989,2000,8.0,4.0
# From MPC188409
C/2020 V2 (ZTF),h,05/08.6467/2023,131.6065,212.4353,162.4981,1.001249,2.229740,2000,4.9,4.0
# From MPEC 2026-E44
P/2020 V3 (PANSTARRS),e,23.0121,198.2730,249.9611,8.413777,0.0403848,0.25771799,76.0320,04/15.0/2026,2000,g  8.3,4.0
# From MPEC 2026-E44
P/2020 V4 (Rankin),e,14.2303,203.4867,257.3578,9.406403,0.0341640,0.45158229,59.0552,04/15.0/2026,2000,g  9.0,4.0
# From MPEC 2026-E44
P/2020 W1 (Rankin),e,10.7770,124.2570,265.5477,7.227416,0.0507259,0.26488193,111.4457,04/15.0/2026,2000,g 10.0,4.0
# From MPEC 2026-E44
P/2020 WJ5 (Lemmon),e,22.2900,177.7406,338.1727,6.016211,0.0667912,0.17234908,116.7665,04/15.0/2026,2000,g  8.5,4.0
# From MPEC 2026-E44
P/2020 X1 (ATLAS),e,31.6848,55.9948,323.5238,4.538181,0.1019486,0.36394065,213.6923,04/15.0/2026,2000,g 13.0,4.0
# From MPEC 2026-E44
C/2020 X2 (ATLAS),e,18.1870,105.3517,347.6454,16.56722,0.0146160,0.76837911,28.8623,04/15.0/2026,2000,g 10.6,4.0
# From MPEC 2026-E44
C/2020 X4 (Leonard),e,80.6638,161.9672,140.2443,40.27753,0.0038558,0.87036921,7.6233,04/15.0/2026,2000,g  9.0,4.0
# From MPEC 2026-E44
C/2020 Y2 (ATLAS),e,101.2533,26.5546,266.4198,1185,0.0000242,0.99734348,0.0000,06/17.5488/2022,2000,g  6.5,4.0
# From MPEC 2026-E44
C/2021 A1 (Leonard),h,01/04.2245/2022,132.7218,255.8950,225.1034,1.000272,0.613919,2000,8.5,4.0
# From MPEC 2026-E44
P/2021 A5 (PANSTARRS),e,18.1850,328.6792,62.1455,3.052311,0.1848251,0.14103877,4.8401,04/15.0/2026,2000,g 15.0,4.0
# From MPEC 2026-E44
C/2021 A6 (PANSTARRS),e,75.5531,164.0006,351.6640,23799,0.0000003,0.99966690,0.0000,05/03.5355/2021,2000,g  7.0,4.0
# From MPEC 2026-E43
C/2021 A9 (PANSTARRS),e,158.0176,314.8489,211.6872,73447,0.0000000,0.99989425,0.0000,12/04.6760/2023,2000,g  6.0,4.0
# From MPEC 2026-E44
P/2021 C2 (PANSTARRS),e,21.9317,66.4499,78.7823,9.552468,0.0333834,0.48866949,62.5755,04/15.0/2026,2000,g 12.0,4.0
# From MPEC 2026-E44
C/2021 C4 (ATLAS),e,132.8210,194.1927,319.9717,2623,0.0000073,0.99828755,0.0000,01/15.5535/2021,2000,g  9.0,4.0
# From MPEC 2026-E44
C/2021 C5 (PANSTARRS),e,50.8088,323.6758,270.8596,1685,0.0000142,0.99807860,0.0000,02/11.0568/2023,2000,g  9.0,4.0
# From MPC191586
C/2021 D2 (ZTF),h,02/03.2903/2022,83.7634,305.6112,125.1082,1.001372,2.953216,2000,9.0,4.0
# From MPEC 2026-E44
C/2021 E3 (ZTF),e,112.5208,104.4839,228.7772,3096,0.0000057,0.99942579,0.0000,06/10.4766/2022,2000,g  8.5,4.0
# From MPEC 2026-E44
A/2021 E4,e,116.4018,171.1250,48.3176,513.6636,0.0000847,0.99088284,0.0000,04/24.9117/2022,2000,g 13.5,2.0
# From MPEC 2026-G41
C/2021 G2 (ATLAS),h,09/09.1681/2024,48.4579,221.0870,343.2685,1.001114,4.982016,2000,5.5,4.0
# From MPEC 2026-E44
C/2021 G3 (PANSTARRS),e,102.8793,147.3221,10.6370,14899,0.0000005,0.99965192,0.0000,10/18.0174/2021,2000,g 10.5,4.0
# From MPEC 2026-E44
P/2021 J3 (ATLAS),e,14.5106,110.9023,125.5342,8.876664,0.0372674,0.44996052,92.4657,04/15.0/2026,2000,g  7.0,4.0
# From MPEC 2026-E44
C/2021 K2 (MASTER),h,09/08.5725/2021,100.8857,282.2930,343.2215,1.000100,5.457114,2000,8.0,4.0
# From MPEC 2026-E44
C/2021 K3 (Catalina),h,02/02.5124/2022,134.7944,114.5196,181.9713,1.003000,5.221203,2000,10.0,4.0
# From MPEC 2026-E44
C/2021 L3 (Borisov),h,02/14.8901/2022,78.5184,345.0269,91.6625,1.004092,8.462208,2000,6.0,4.0
# From MPEC 2026-E44
P/2021 N1 (ZTF),e,11.4853,301.1313,21.2134,2.980665,0.1915289,0.67574946,340.1131,04/15.0/2026,2000,g 19.0,4.0
# From MPEC 2026-E44
P/2021 N2 (Fuls),e,13.0579,221.7560,177.6501,6.947973,0.0538167,0.45168311,86.8328,04/15.0/2026,2000,g  9.5,4.0
# From MPEC 2026-E44
C/2021 N3 (PANSTARRS),e,26.7726,337.5455,304.5047,137.9154,0.0006085,0.95862492,1.2584,04/15.0/2026,2000,g  8.5,4.0
# From MPEC 2026-E44
C/2021 P1 (PANSTARRS),e,51.6045,359.7291,40.5298,2247,0.0000093,0.99804963,0.0000,06/02.2424/2022,2000,g 11.0,4.0
# From MPEC 2026-E44
C/2021 P2 (PANSTARRS),e,150.0435,32.1033,76.6874,10781,0.0000009,0.99953014,0.0000,01/22.9553/2023,2000,g  9.0,4.0
# From MPEC 2026-E44
P/2021 P3 (PANSTARRS),e,27.1661,358.2416,333.9343,4.411497,0.1063715,0.33853014,189.7369,04/15.0/2026,2000,g 14.0,4.0
# From MPEC 2026-E44
C/2021 P4 (ATLAS),e,56.4192,347.9635,175.8332,300.9902,0.0001887,0.99641731,0.0000,07/30.5894/2022,2000,g  9.5,4.0
# From MPEC 2026-E44
C/2021 Q3 (ATLAS),e,77.7060,307.9039,114.1670,74.55970,0.0015309,0.93009363,2.3582,04/15.0/2026,2000,g  8.0,4.0
# From MPEC 2026-E44
C/2021 Q4 (Fuls),h,06/10.0273/2023,71.5581,183.3382,146.9997,1.000191,7.563022,2000,6.0,4.0
# From MPEC 2026-E44
P/2021 Q5 (ATLAS),e,10.7372,239.7294,180.9752,3.284173,0.1656018,0.62415535,279.4145,04/15.0/2026,2000,g 15.0,4.0
# From MPEC 2026-E44
C/2021 Q6 (PANSTARRS),h,03/25.2959/2024,161.8279,133.5734,141.0596,1.003607,8.707221,2000,6.0,4.0
# From MPEC 2026-E44
C/2021 QM45 (PANSTARRS),e,22.7840,354.5892,72.9748,413.7139,0.0001171,0.99327650,0.0000,08/13.4993/2022,2000,g 11.0,4.0
# From MPEC 2026-E44
P/2021 R1 (PANSTARRS),e,5.5419,143.0465,219.9486,8.232986,0.0417223,0.40616350,66.4421,04/15.0/2026,2000,g 11.0,4.0
# From MPEC 2026-E44
C/2021 R2 (PANSTARRS),e,134.4766,16.3656,32.5614,20687,0.0000003,0.99964641,0.0000,12/28.6005/2021,2000,g  7.5,4.0
# From MPEC 2026-E44
P/2021 R3 (PANSTARRS),e,19.9456,304.1991,2.5789,3.767456,0.1347820,0.33236731,240.6616,04/15.0/2026,2000,g 16.0,4.0
# From MPEC 2026-E44
P/2021 R5 (Rankin),e,7.8525,219.9701,167.6062,4.799318,0.0937421,0.30549390,145.7172,04/15.0/2026,2000,g 12.0,4.0
# From MPEC 2026-E44
P/2021 R8 (Sheppard),e,2.2026,167.0064,190.8496,3.020663,0.1877373,0.29238531,310.1081,04/15.0/2026,2000,g 18.5,4.0
# From MPEC 2026-E44
C/2021 S1 (ATLAS),h,03/02.1858/2022,52.0329,299.8485,148.3647,1.002968,6.129742,2000,7.0,4.0
# From MPC191586
C/2021 S3 (PANSTARRS),e,58.5649,215.5789,6.8294,13008,0.0000007,0.99989860,0.0000,02/14.6630/2024,2000,g  5.5,4.0
# From MPEC 2026-E44
C/2021 S4 (Tsuchinshan),e,17.4831,5.4326,73.1068,151.5412,0.0005283,0.95582041,0.4396,04/15.0/2026,2000,g  6.5,4.0
# From MPEC 2026-E44
C/2021 T4 (Lemmon),e,160.7790,257.8812,329.7247,2537,0.0000077,0.99941649,0.0000,07/31.3477/2023,2000,g  7.5,4.0
# From MPEC 2026-E44
P/2021 V2 (Fuls),e,12.6884,232.2724,259.9619,9.099803,0.0359051,0.61549623,42.3199,04/15.0/2026,2000,g 10.0,4.0
# From MPEC 2026-E44
C/2021 X1 (Maury-Attard),h,05/27.4592/2023,140.1116,10.6462,334.6508,1.000890,3.234621,2000,7.0,4.0
# From MPEC 2026-E44
C/2021 Y1 (ATLAS),h,05/01.1128/2023,77.1639,244.7628,245.8578,1.001790,2.032295,2000,7.0,4.0
# From MPEC 2026-E44
C/2022 A2 (PANSTARRS),h,02/18.2740/2023,108.2035,171.6322,88.3721,1.000180,1.734893,2000,9.5,4.0
